[{"OBJECT_NAME":"ONEWEB-0540","OBJECT_ID":"2022-166D","EPOCH":"2026-02-01T02:52:25.199904","MEAN_MOTION":13.21824577,"ECCENTRICITY":0.00016319,"INCLINATION":87.9194,"RA_OF_ASC_NODE":271.1491,"ARG_OF_PERICENTER":77.369,"MEAN_ANOMALY":282.7626,"EPHEMERIS_TYPE":0,"CLASSIFICATION_TYPE":"U","NORAD_CAT_ID":54645,"ELEMENT_SET_NO":999,"REV_AT_EPOCH":15355,"BSTAR":6.3340515e-5,"MEAN_MOTION_DOT":3.9e-7,"MEAN_MOTION_DDOT":0},{"OBJECT_NAME":"ONEWEB-0542","OBJECT_ID":"2022-166E","EPOCH":"2026-02-01T02:56:57.789312","MEAN_MOTION":13.21827591,"ECCENTRICITY":0.00016795,"INCLINATION":87.9199,"RA_OF_ASC_NODE":271.1065,"ARG_OF_PERICENTER":68.8166,"MEAN_ANOMALY":291.3147,"EPHEMERIS_TYPE":0,"CLASSIFICATION_TYPE":"U","NORAD_CAT_ID":54646,"ELEMENT_SET_NO":999,"REV_AT_EPOCH":15356,"BSTAR":0.00014497524,"MEAN_MOTION_DOT":7.3e-7,"MEAN_MOTION_DDOT":0},{"OBJECT_NAME":"ONEWEB-0545","OBJECT_ID":"2022-166F","EPOCH":"2026-01-31T17:02:11.084064","MEAN_MOTION":13.21827596,"ECCENTRICITY":0.00018481,"INCLINATION":87.9198,"RA_OF_ASC_NODE":271.2107,"ARG_OF_PERICENTER":66.6801,"MEAN_ANOMALY":293.4527,"EPHEMERIS_TYPE":0,"CLASSIFICATION_TYPE":"U","NORAD_CAT_ID":54647,"ELEMENT_SET_NO":999,"REV_AT_EPOCH":15347,"BSTAR":-0.00011509046,"MEAN_MOTION_DOT":-3.5e-7,"MEAN_MOTION_DDOT":0},{"OBJECT_NAME":"ONEWEB-0580","OBJECT_ID":"2022-166G","EPOCH":"2026-01-31T21:51:16.828416","MEAN_MOTION":13.21825872,"ECCENTRICITY":0.0001843,"INCLINATION":87.9199,"RA_OF_ASC_NODE":271.17,"ARG_OF_PERICENTER":73.1429,"MEAN_ANOMALY":286.9907,"EPHEMERIS_TYPE":0,"CLASSIFICATION_TYPE":"U","NORAD_CAT_ID":54648,"ELEMENT_SET_NO":999,"REV_AT_EPOCH":15354,"BSTAR":4.9686103e-5,"MEAN_MOTION_DOT":3.4e-7,"MEAN_MOTION_DDOT":0},{"OBJECT_NAME":"ONEWEB-0582","OBJECT_ID":"2022-166H","EPOCH":"2026-02-01T02:30:53.316864","MEAN_MOTION":13.2182785,"ECCENTRICITY":0.00018625,"INCLINATION":87.9198,"RA_OF_ASC_NODE":271.1241,"ARG_OF_PERICENTER":66.1697,"MEAN_ANOMALY":293.9632,"EPHEMERIS_TYPE":0,"CLASSIFICATION_TYPE":"U","NORAD_CAT_ID":54649,"ELEMENT_SET_NO":999,"REV_AT_EPOCH":15354,"BSTAR":-0.0002087368,"MEAN_MOTION_DOT":-7.3e-7,"MEAN_MOTION_DDOT":0},{"OBJECT_NAME":"ONEWEB-0583","OBJECT_ID":"2022-166J","EPOCH":"2026-02-01T02:47:28.918752","MEAN_MOTION":13.21827837,"ECCENTRICITY":0.00014994,"INCLINATION":87.9194,"RA_OF_ASC_NODE":271.1456,"ARG_OF_PERICENTER":75.451,"MEAN_ANOMALY":284.679,"EPHEMERIS_TYPE":0,"CLASSIFICATION_TYPE":"U","NORAD_CAT_ID":54650,"ELEMENT_SET_NO":999,"REV_AT_EPOCH":15355,"BSTAR":0.00010579104,"MEAN_MOTION_DOT":5.7e-7,"MEAN_MOTION_DDOT":0},{"OBJECT_NAME":"ONEWEB-0584","OBJECT_ID":"2022-166K","EPOCH":"2026-01-31T21:48:54.641664","MEAN_MOTION":13.2182805,"ECCENTRICITY":0.00018363,"INCLINATION":87.92,"RA_OF_ASC_NODE":271.1743,"ARG_OF_PERICENTER":74.9456,"MEAN_ANOMALY":285.1881,"EPHEMERIS_TYPE":0,"CLASSIFICATION_TYPE":"U","NORAD_CAT_ID":54651,"ELEMENT_SET_NO":999,"REV_AT_EPOCH":15351,"BSTAR":4.9204787e-5,"MEAN_MOTION_DOT":3.3e-7,"MEAN_MOTION_DDOT":0},{"OBJECT_NAME":"ONEWEB-0585","OBJECT_ID":"2022-166L","EPOCH":"2026-02-01T02:02:27.649536","MEAN_MOTION":13.21824704,"ECCENTRICITY":0.00015257,"INCLINATION":87.9199,"RA_OF_ASC_NODE":271.1236,"ARG_OF_PERICENTER":85.7363,"MEAN_ANOMALY":274.3946,"EPHEMERIS_TYPE":0,"CLASSIFICATION_TYPE":"U","NORAD_CAT_ID":54652,"ELEMENT_SET_NO":999,"REV_AT_EPOCH":15354,"BSTAR":0.00022102979,"MEAN_MOTION_DOT":1.04e-6,"MEAN_MOTION_DDOT":0},{"OBJECT_NAME":"ONEWEB-0586","OBJECT_ID":"2022-166M","EPOCH":"2026-02-01T02:21:24.678720","MEAN_MOTION":13.21824429,"ECCENTRICITY":0.00015797,"INCLINATION":87.9199,"RA_OF_ASC_NODE":271.1461,"ARG_OF_PERICENTER":76.9335,"MEAN_ANOMALY":283.1975,"EPHEMERIS_TYPE":0,"CLASSIFICATION_TYPE":"U","NORAD_CAT_ID":54653,"ELEMENT_SET_NO":999,"REV_AT_EPOCH":15354,"BSTAR":-3.0261219e-5,"MEAN_MOTION_DOT":1.0e-8,"MEAN_MOTION_DDOT":0},{"OBJECT_NAME":"ONEWEB-0587","OBJECT_ID":"2022-166N","EPOCH":"2026-01-31T22:57:37.438848","MEAN_MOTION":13.21827099,"ECCENTRICITY":0.00014545,"INCLINATION":87.9204,"RA_OF_ASC_NODE":271.135,"ARG_OF_PERICENTER":95.6614,"MEAN_ANOMALY":264.4686,"EPHEMERIS_TYPE":0,"CLASSIFICATION_TYPE":"U","NORAD_CAT_ID":54654,"ELEMENT_SET_NO":999,"REV_AT_EPOCH":15368,"BSTAR":-0.00033242352,"MEAN_MOTION_DOT":-1.24e-6,"MEAN_MOTION_DDOT":0},{"OBJECT_NAME":"ONEWEB-0589","OBJECT_ID":"2022-166P","EPOCH":"2026-02-01T02:16:40.275840","MEAN_MOTION":13.21827589,"ECCENTRICITY":0.00022259,"INCLINATION":87.9194,"RA_OF_ASC_NODE":271.1368,"ARG_OF_PERICENTER":65.0477,"MEAN_ANOMALY":295.0888,"EPHEMERIS_TYPE":0,"CLASSIFICATION_TYPE":"U","NORAD_CAT_ID":54655,"ELEMENT_SET_NO":999,"REV_AT_EPOCH":15356,"BSTAR":0.00017958654,"MEAN_MOTION_DOT":8.7e-7,"MEAN_MOTION_DDOT":0},{"OBJECT_NAME":"ONEWEB-0590","OBJECT_ID":"2022-166Q","EPOCH":"2026-02-01T02:52:00.899040","MEAN_MOTION":13.21828304,"ECCENTRICITY":0.00019011,"INCLINATION":87.9198,"RA_OF_ASC_NODE":271.1099,"ARG_OF_PERICENTER":88.2302,"MEAN_ANOMALY":271.9049,"EPHEMERIS_TYPE":0,"CLASSIFICATION_TYPE":"U","NORAD_CAT_ID":54656,"ELEMENT_SET_NO":999,"REV_AT_EPOCH":15355,"BSTAR":7.5071998e-5,"MEAN_MOTION_DOT":4.4e-7,"MEAN_MOTION_DDOT":0},{"OBJECT_NAME":"ONEWEB-0591","OBJECT_ID":"2022-166R","EPOCH":"2026-02-01T03:08:48.988320","MEAN_MOTION":13.21824936,"ECCENTRICITY":0.00016432,"INCLINATION":87.9198,"RA_OF_ASC_NODE":271.1304,"ARG_OF_PERICENTER":81.613,"MEAN_ANOMALY":278.519,"EPHEMERIS_TYPE":0,"CLASSIFICATION_TYPE":"U","NORAD_CAT_ID":54657,"ELEMENT_SET_NO":999,"REV_AT_EPOCH":15358,"BSTAR":0.0001443031,"MEAN_MOTION_DOT":7.3e-7,"MEAN_MOTION_DDOT":0},{"OBJECT_NAME":"ONEWEB-0592","OBJECT_ID":"2022-166S","EPOCH":"2026-02-01T03:13:33.854304","MEAN_MOTION":13.21824851,"ECCENTRICITY":0.00016078,"INCLINATION":87.9207,"RA_OF_ASC_NODE":271.0973,"ARG_OF_PERICENTER":81.2168,"MEAN_ANOMALY":278.9148,"EPHEMERIS_TYPE":0,"CLASSIFICATION_TYPE":"U","NORAD_CAT_ID":54658,"ELEMENT_SET_NO":999,"REV_AT_EPOCH":15346,"BSTAR":0.0001511432,"MEAN_MOTION_DOT":7.5e-7,"MEAN_MOTION_DDOT":0},{"OBJECT_NAME":"ONEWEB-0593","OBJECT_ID":"2022-166T","EPOCH":"2026-01-31T22:19:42.298752","MEAN_MOTION":13.21827876,"ECCENTRICITY":0.00015201,"INCLINATION":87.9198,"RA_OF_ASC_NODE":271.1603,"ARG_OF_PERICENTER":75.1386,"MEAN_ANOMALY":284.9916,"EPHEMERIS_TYPE":0,"CLASSIFICATION_TYPE":"U","NORAD_CAT_ID":54659,"ELEMENT_SET_NO":999,"REV_AT_EPOCH":15354,"BSTAR":2.2761164e-5,"MEAN_MOTION_DOT":2.2e-7,"MEAN_MOTION_DDOT":0},{"OBJECT_NAME":"ONEWEB-0594","OBJECT_ID":"2022-166U","EPOCH":"2026-02-01T02:26:09.848832","MEAN_MOTION":13.21825061,"ECCENTRICITY":0.0001461,"INCLINATION":87.9193,"RA_OF_ASC_NODE":271.1443,"ARG_OF_PERICENTER":82.0351,"MEAN_ANOMALY":278.0949,"EPHEMERIS_TYPE":0,"CLASSIFICATION_TYPE":"U","NORAD_CAT_ID":54660,"ELEMENT_SET_NO":999,"REV_AT_EPOCH":15358,"BSTAR":-0.00012347017,"MEAN_MOTION_DOT":-3.8e-7,"MEAN_MOTION_DDOT":0},{"OBJECT_NAME":"ONEWEB-0595","OBJECT_ID":"2022-166V","EPOCH":"2026-02-01T01:52:58.206144","MEAN_MOTION":13.21825247,"ECCENTRICITY":0.00015437,"INCLINATION":87.9194,"RA_OF_ASC_NODE":271.1206,"ARG_OF_PERICENTER":90.3415,"MEAN_ANOMALY":269.7896,"EPHEMERIS_TYPE":0,"CLASSIFICATION_TYPE":"U","NORAD_CAT_ID":54661,"ELEMENT_SET_NO":999,"REV_AT_EPOCH":15355,"BSTAR":-0.00024849762,"MEAN_MOTION_DOT":-9.0e-7,"MEAN_MOTION_DDOT":0}]
