ONEWEB-0540             
1 54645U 22166D   26032.11973611  .00000039  00000+0  63341-4 0  9995
2 54645  87.9194 271.1491 0001631  77.3690 282.7626 13.21824577153554
ONEWEB-0542             
1 54646U 22166E   26032.12289108  .00000073  00000+0  14498-3 0  9994
2 54646  87.9199 271.1065 0001679  68.8166 291.3147 13.21827591153566
ONEWEB-0545             
1 54647U 22166F   26031.70985051 -.00000035  00000+0 -11509-3 0  9998
2 54647  87.9198 271.2107 0001848  66.6801 293.4527 13.21827596153474
ONEWEB-0580             
1 54648U 22166G   26031.91061144  .00000034  00000+0  49686-4 0  9995
2 54648  87.9199 271.1700 0001843  73.1429 286.9907 13.21825872153540
ONEWEB-0582             
1 54649U 22166H   26032.10478376 -.00000073  00000+0 -20874-3 0  9999
2 54649  87.9198 271.1241 0001862  66.1697 293.9632 13.21827850153541
ONEWEB-0583             
1 54650U 22166J   26032.11630693  .00000057  00000+0  10579-3 0  9995
2 54650  87.9194 271.1456 0001499  75.4510 284.6790 13.21827837153558
ONEWEB-0584             
1 54651U 22166K   26031.90896576  .00000033  00000+0  49205-4 0  9999
2 54651  87.9200 271.1743 0001836  74.9456 285.1881 13.21828050153515
ONEWEB-0585             
1 54652U 22166L   26032.08504224  .00000104  00000+0  22103-3 0  9992
2 54652  87.9199 271.1236 0001525  85.7363 274.3946 13.21824704153549
ONEWEB-0586             
1 54653U 22166M   26032.09820230  .00000001  00000+0 -30261-4 0  9994
2 54653  87.9199 271.1461 0001579  76.9335 283.1975 13.21824429153544
ONEWEB-0587             
1 54654U 22166N   26031.95668332 -.00000124  00000+0 -33242-3 0  9990
2 54654  87.9204 271.1350 0001454  95.6614 264.4686 13.21827099153681
ONEWEB-0589             
1 54655U 22166P   26032.09491060  .00000087  00000+0  17959-3 0  9992
2 54655  87.9194 271.1368 0002225  65.0477 295.0888 13.21827589153569
ONEWEB-0590             
1 54656U 22166Q   26032.11945485  .00000044  00000+0  75072-4 0  9995
2 54656  87.9198 271.1099 0001901  88.2302 271.9049 13.21828304153556
ONEWEB-0591             
1 54657U 22166R   26032.13112255  .00000073  00000+0  14430-3 0  9991
2 54657  87.9198 271.1304 0001643  81.6130 278.5190 13.21824936153585
ONEWEB-0592             
1 54658U 22166S   26032.13441961  .00000075  00000+0  15114-3 0  9993
2 54658  87.9207 271.0973 0001607  81.2168 278.9148 13.21824851153465
ONEWEB-0593             
1 54659U 22166T   26031.93035068  .00000022  00000+0  22761-4 0  9997
2 54659  87.9198 271.1603 0001520  75.1386 284.9916 13.21827876153543
ONEWEB-0594             
1 54660U 22166U   26032.10150288 -.00000038  00000+0 -12347-3 0  9998
2 54660  87.9193 271.1443 0001461  82.0351 278.0949 13.21825061153583
ONEWEB-0595             
1 54661U 22166V   26032.07845146 -.00000090  00000+0 -24850-3 0  9999
2 54661  87.9194 271.1206 0001543  90.3415 269.7896 13.21825247153557
